IRIDIUM 136             
1 42962U 17061H   24227.59201733  .00000032  00000+0  43273-5 0  9993
2 42962  86.3981 305.9134 0002518  91.8437 268.3047 14.34217563358577
